[{"OBJECT_NAME":"APRIZESAT 10","OBJECT_ID":"2014-033K","EPOCH":"2026-03-09T22:32:23.152704","MEAN_MOTION":14.70752531,"ECCENTRICITY":0.00780042,"INCLINATION":97.9479,"RA_OF_ASC_NODE":198.2119,"ARG_OF_PERICENTER":230.1102,"MEAN_ANOMALY":129.3229,"EPHEMERIS_TYPE":0,"CLASSIFICATION_TYPE":"U","NORAD_CAT_ID":40019,"ELEMENT_SET_NO":999,"REV_AT_EPOCH":62766,"BSTAR":0.00017424571,"MEAN_MOTION_DOT":1.061e-5,"MEAN_MOTION_DDOT":0},{"OBJECT_NAME":"ALSAT-1","OBJECT_ID":"2002-054A","EPOCH":"2026-03-09T23:09:33.387264","MEAN_MOTION":14.7801747,"ECCENTRICITY":0.00188285,"INCLINATION":98.2462,"RA_OF_ASC_NODE":251.2442,"ARG_OF_PERICENTER":237.1457,"MEAN_ANOMALY":122.7941,"EPHEMERIS_TYPE":0,"CLASSIFICATION_TYPE":"U","NORAD_CAT_ID":27559,"ELEMENT_SET_NO":999,"REV_AT_EPOCH":24859,"BSTAR":0.00020035968,"MEAN_MOTION_DOT":1.395e-5,"MEAN_MOTION_DDOT":0}]
